{
    "Payees": [
        {
            "PartyId": "24813150-298C-407F-96D9-6E1F96216812",
            "FullName": "Joe Schmo",
            "Address": {
                "Street": "100 River Dr",
                "City": "Philadelphia",
                "State": "PA",
                "Zip": "19019"
            }
        },
        {
            "PartyId": "FD4F14EA-DE72-4CF5-857B-9EAE6745A2FC",
            "FullName": "Mike Lebowski",
            "Address": {
                "Street": "19 Dudirito Rd",
                "City": "Los Angelos",
                "State": "CA",
                "Zip": "90001"
            }
        },
        {
            "PartyId": "406F265F-4953-4A0B-BCC3-2988B3EA3DFB",
            "FullName": "Sam Rose",
            "Address": {
                "Street": "165 Main St",
                "City": "West Deptford",
                "State": "NJ",
                "Zip": "8096"
            }
        },
        {
            "PartyId": "8F6D55BD-D47B-4AC5-9A78-11007BB18109",
            "FullName": "Bill Suthington",
            "Address": {
                "Street": "72 Walnut Street",
                "City": "West Deptford",
                "State": "NJ",
                "Zip": "8096"
            }
        },
        {
            "PartyId": "B31BF9D3-16A2-4AF3-B02E-64D28CB8B648",
            "FullName": "Sue B Anthony",
            "Address": {
                "Street": "1524 Cooper Str",
                "City": "West Deptford",
                "State": "NJ",
                "Zip": "8096"
            }
        },
        {
            "PartyId": "3A882FC3-C6F0-480D-8393-2A98550B9F81",
            "FullName": "Matt Wallingsworth",
            "Address": {
                "Street": "Apt 10, 234 Rundown Rd",
                "City": "Los Angelos",
                "State": "CA",
                "Zip": "90001"
            }
        },
        {
            "PartyId": "27FA5689-7799-4407-85B9-1B8545224899",
            "FullName": "Chris C Storger",
            "Address": {
                "Street": "200 Fillington Street",
                "City": "Philadelphia",
                "State": "PA",
                "Zip": "19019"
            }
        },
        {
            "PartyId": "936b0d88-bef1-43af-b797-d6086144a7d4",
            "FullName": "Peter F Samesung",
            "Address": {
                "Street": "432 Main Street",
                "City": "St Paul",
                "State": "MN",
                "Zip": "55102"
            }
        },
        {
            "PartyId": "6126183a-f25e-11ec-b7a1-acde48001122",
            "FullName": "Sue Petersberg",
            "Address": {
                "Street": "39 W. Hughes Rd",
                "City": "Geneva",
                "State": "IL",
                "Zip": "60134"
            }
        },
        {
            "PartyId": "ad825d84-7dc7-4c67-ab8e-f4a61a93fb94",
            "FullName": "Hal B Rotten",
            "Address": {
                "Street": "700 W 31st Street",
                "City": "Chicago",
                "State": "IL",
                "Zip": "60616"
            }
        },
        {
            "PartyId": "cf9cde9e-5431-4126-a4ee-e403a428249a",
            "FullName": "Steve D Sunbury",
            "Address": {
                "Street": "19736 Rt 54",
                "City": "Gay",
                "State": "GA",
                "Zip": "32018"
            }
        },
        {
            "PartyId": "85d6cfeb-9d29-40f0-98e9-98ee6cfdf8f5",
            "FullName": "Todd G George",
            "Address": {
                "Street": "13115 Sydney Road",
                "City": "Dover",
                "State": "FL",
                "Zip": "33522"
            }
        },
        {
            "PartyId": "98ec6f56-1b11-4d8b-adae-45b309b37247",
            "FullName": "Jerome T Booker",
            "Address": {
                "Street": "1733 N. Acadian Thruway",
                "City": "Baton Rouge",
                "State": "LA",
                "Zip": "70802"
            }
        },
        {
            "PartyId": "30ecac90-7280-4d1a-8d01-841dc9b92a56",
            "FullName": "April Showers",
            "Address": {
                "Street": "3475 Ashley Rd",
                "City": "Montgomery",
                "State": "AL",
                "Zip": "36108"
            }
        }
    ]
}